start=new Date('2021-11-19T00:00:00.000Z').valueOf();
sats=[{"ARG_OF_PERICENTER":"68.1789","LAUNCH_DATE":"2021-04-07","EPHEMERIS_TYPE":"0","MEAN_MOTION_DDOT":"0.0000000000000","CENTER_NAME":"EARTH","BSTAR":"-0.00000386680000","ECCENTRICITY":"0.00012440","OBJECT_NAME":"STARLINK-2474","ELEMENT_SET_NO":"999","INCLINATION":"53.0578","OBJECT_ID":"2021-027AS","SEMIMAJOR_AXIS":"6925.350","PERIOD":"95.592","TLE_LINE1":"1 48132U 21027AS  21322.36755610 -.00000339  00000-0 -38668-5 0  9996","REF_FRAME":"TEME","RA_OF_ASC_NODE":"30.0471","MEAN_MOTION":"15.06399634","MEAN_ANOMALY":"291.9333","PERIAPSIS":"546.353","MEAN_ELEMENT_THEORY":"SGP4","RCS_SIZE":"LARGE","TLE_LINE2":"2 48132  53.0578  30.0471 0001244  68.1789 291.9333 15.06399634 35423","CLASSIFICATION_TYPE":"U","OBJECT_TYPE":"PAYLOAD","FILE":"3218461","TIME_SYSTEM":"UTC","SITE":"AFETR","COUNTRY_CODE":"US","MEAN_MOTION_DOT":"-0.00000339","DECAY_DATE":null,"APOAPSIS":"548.076","NORAD_CAT_ID":"48132","GP_ID":"190012191","EPOCH":"2021-11-18T08:49:16.847040","REV_AT_EPOCH":"3542"},{"REV_AT_EPOCH":"3548","EPOCH":"2021-11-18T16:41:40.278048","NORAD_CAT_ID":"48133","GP_ID":"190039278","APOAPSIS":"548.124","DECAY_DATE":null,"MEAN_MOTION_DOT":"0.00000177","COUNTRY_CODE":"US","SITE":"AFETR","TIME_SYSTEM":"UTC","OBJECT_TYPE":"PAYLOAD","FILE":"3218669","CLASSIFICATION_TYPE":"U","RCS_SIZE":"LARGE","TLE_LINE2":"2 48133  53.0576  28.5738 0001311  74.1792 285.9342 15.06399230 35487","MEAN_ELEMENT_THEORY":"SGP4","MEAN_ANOMALY":"285.9342","PERIAPSIS":"546.308","MEAN_MOTION":"15.06399230","RA_OF_ASC_NODE":"28.5738","SEMIMAJOR_AXIS":"6925.351","PERIOD":"95.592","TLE_LINE1":"1 48133U 21027AT  21322.69560507  .00000177  00000-0  30782-4 0  9998","REF_FRAME":"TEME","OBJECT_ID":"2021-027AT","INCLINATION":"53.0576","ELEMENT_SET_NO":"999","BSTAR":"0.00003078200000","OBJECT_NAME":"STARLINK-2475","ECCENTRICITY":"0.00013110","MEAN_MOTION_DDOT":"0.0000000000000","CENTER_NAME":"EARTH","LAUNCH_DATE":"2021-04-07","EPHEMERIS_TYPE":"0","ARG_OF_PERICENTER":"74.1792"},{"MEAN_ELEMENT_THEORY":"SGP4","PERIAPSIS":"546.371","MEAN_ANOMALY":"288.4645","CLASSIFICATION_TYPE":"U","TLE_LINE2":"2 48134  53.0575  29.5316 0001225  71.6477 288.4645 15.06398201 35443","RCS_SIZE":"LARGE","ECCENTRICITY":"0.00012250","OBJECT_NAME":"STARLINK-2476","BSTAR":"0.00000234090000","CENTER_NAME":"EARTH","MEAN_MOTION_DDOT":"0.0000000000000","LAUNCH_DATE":"2021-04-07","EPHEMERIS_TYPE":"0","ARG_OF_PERICENTER":"71.6477","RA_OF_ASC_NODE":"29.5316","MEAN_MOTION":"15.06398201","TLE_LINE1":"1 48134U 21027AU  21322.48182052 -.00000246  00000-0  23409-5 0  9998","PERIOD":"95.592","REF_FRAME":"TEME","SEMIMAJOR_AXIS":"6925.354","OBJECT_ID":"2021-027AU","INCLINATION":"53.0575","ELEMENT_SET_NO":"999","EPOCH":"2021-11-18T11:33:49.292928","GP_ID":"190011189","NORAD_CAT_ID":"48134","APOAPSIS":"548.067","DECAY_DATE":null,"REV_AT_EPOCH":"3544","SITE":"AFETR","TIME_SYSTEM":"UTC","FILE":"3218461","OBJECT_TYPE":"PAYLOAD","MEAN_MOTION_DOT":"-0.00000246","COUNTRY_CODE":"US"},{"MEAN_MOTION_DOT":"0.00001341","COUNTRY_CODE":"US","TIME_SYSTEM":"UTC","SITE":"AFETR","FILE":"3218461","OBJECT_TYPE":"PAYLOAD","REV_AT_EPOCH":"3539","EPOCH":"2021-11-18T14:24:17.795808","APOAPSIS":"548.311","DECAY_DATE":null,"GP_ID":"190011941","NORAD_CAT_ID":"48135","TLE_LINE1":"1 48135U 21027AV  21322.60020597  .00001341  00000-0  10888-3 0  9999","PERIOD":"95.592","REF_FRAME":"TEME","SEMIMAJOR_AXIS":"6925.328","RA_OF_ASC_NODE":"34.0003","MEAN_MOTION":"15.06406605","ELEMENT_SET_NO":"999","OBJECT_ID":"2021-027AV","INCLINATION":"53.0566","CENTER_NAME":"EARTH","MEAN_MOTION_DDOT":"0.0000000000000","ECCENTRICITY":"0.00016140","OBJECT_NAME":"STARLINK-2478","BSTAR":"0.00010888000000","ARG_OF_PERICENTER":"72.0444","EPHEMERIS_TYPE":"0","LAUNCH_DATE":"2021-04-07","CLASSIFICATION_TYPE":"U","TLE_LINE2":"2 48135  53.0566  34.0003 0001614  72.0444 288.0721 15.06406605 35392","RCS_SIZE":"LARGE","MEAN_ELEMENT_THEORY":"SGP4","MEAN_ANOMALY":"288.0721","PERIAPSIS":"546.076"},{"DECAY_DATE":null,"APOAPSIS":"547.904","NORAD_CAT_ID":"48136","GP_ID":"190011692","EPOCH":"2021-11-18T07:24:21.659328","REV_AT_EPOCH":"3542","OBJECT_TYPE":"PAYLOAD","FILE":"3218461","TIME_SYSTEM":"UTC","SITE":"AFETR","COUNTRY_CODE":"US","MEAN_MOTION_DOT":"0.00000344","MEAN_ANOMALY":"285.8403","PERIAPSIS":"546.491","MEAN_ELEMENT_THEORY":"SGP4","RCS_SIZE":"LARGE","TLE_LINE2":"2 48136  53.0569  30.3012 0001020  74.2698 285.8403 15.06405264 35427","CLASSIFICATION_TYPE":"U","ARG_OF_PERICENTER":"74.2698","EPHEMERIS_TYPE":"0","LAUNCH_DATE":"2021-04-07","MEAN_MOTION_DDOT":"0.0000000000000","CENTER_NAME":"EARTH","BSTAR":"0.00004197400000","OBJECT_NAME":"STARLINK-2479","ECCENTRICITY":"0.00010200","ELEMENT_SET_NO":"999","INCLINATION":"53.0569","OBJECT_ID":"2021-027AW","SEMIMAJOR_AXIS":"6925.332","TLE_LINE1":"1 48136U 21027AW  21322.30858402  .00000344  00000-0  41974-4 0  9994","PERIOD":"95.592","REF_FRAME":"TEME","MEAN_MOTION":"15.06405264","RA_OF_ASC_NODE":"30.3012"},{"LAUNCH_DATE":"2021-04-07","EPHEMERIS_TYPE":"0","ARG_OF_PERICENTER":"61.4100","ECCENTRICITY":"0.00013990","OBJECT_NAME":"STARLINK-2480","BSTAR":"0.00007893500000","CENTER_NAME":"EARTH","MEAN_MOTION_DDOT":"0.0000000000000","OBJECT_ID":"2021-027AX","INCLINATION":"53.0511","ELEMENT_SET_NO":"999","RA_OF_ASC_NODE":"9.0003","MEAN_MOTION":"15.06399242","TLE_LINE1":"1 48137U 21027AX  21322.60066893  .00000894  00000-0  78935-4 0  9990","PERIOD":"95.592","REF_FRAME":"TEME","SEMIMAJOR_AXIS":"6925.351","PERIAPSIS":"546.247","MEAN_ANOMALY":"298.7029","MEAN_ELEMENT_THEORY":"SGP4","TLE_LINE2":"2 48137  53.0511   9.0003 0001399  61.4100 298.7029 15.06399242 35743","RCS_SIZE":"LARGE","CLASSIFICATION_TYPE":"U","FILE":"3218669","OBJECT_TYPE":"PAYLOAD","SITE":"AFETR","TIME_SYSTEM":"UTC","COUNTRY_CODE":"US","MEAN_MOTION_DOT":"0.00000894","GP_ID":"190038779","NORAD_CAT_ID":"48137","DECAY_DATE":null,"APOAPSIS":"548.185","EPOCH":"2021-11-18T14:24:57.795552","REV_AT_EPOCH":"3574"},{"PERIOD":"95.592","TLE_LINE1":"1 48138U 21027AY  21322.49288152  .00000086  00000-0  24653-4 0  9993","REF_FRAME":"TEME","SEMIMAJOR_AXIS":"6925.356","RA_OF_ASC_NODE":"29.4871","MEAN_MOTION":"15.06397512","ELEMENT_SET_NO":"999","OBJECT_ID":"2021-027AY","INCLINATION":"53.0579","CENTER_NAME":"EARTH","MEAN_MOTION_DDOT":"0.0000000000000","ECCENTRICITY":"0.00012490","OBJECT_NAME":"STARLINK-2481","BSTAR":"0.00002465300000","ARG_OF_PERICENTER":"63.0448","EPHEMERIS_TYPE":"0","LAUNCH_DATE":"2021-04-07","CLASSIFICATION_TYPE":"U","TLE_LINE2":"2 48138  53.0579  29.4871 0001249  63.0448 297.0668 15.06397512 35451","RCS_SIZE":"LARGE","MEAN_ELEMENT_THEORY":"SGP4","MEAN_ANOMALY":"297.0668","PERIAPSIS":"546.356","MEAN_MOTION_DOT":"0.00000086","COUNTRY_CODE":"US","TIME_SYSTEM":"UTC","SITE":"AFETR","FILE":"3218461","OBJECT_TYPE":"PAYLOAD","REV_AT_EPOCH":"3545","EPOCH":"2021-11-18T11:49:44.963328","APOAPSIS":"548.086","DECAY_DATE":null,"GP_ID":"190010690","NORAD_CAT_ID":"48138"},{"RCS_SIZE":"LARGE","TLE_LINE2":"2 48139  53.0557   8.9206 0001359  62.2659 297.8467 15.06396162 35757","CLASSIFICATION_TYPE":"U","MEAN_ANOMALY":"297.8467","PERIAPSIS":"546.284","MEAN_ELEMENT_THEORY":"SGP4","OBJECT_ID":"2021-027AZ","INCLINATION":"53.0557","ELEMENT_SET_NO":"999","RA_OF_ASC_NODE":"8.9206","MEAN_MOTION":"15.06396162","SEMIMAJOR_AXIS":"6925.360","PERIOD":"95.592","TLE_LINE1":"1 48139U 21027AZ  21322.61636198  .00000147  00000-0  28790-4 0  9999","REF_FRAME":"TEME","EPHEMERIS_TYPE":"0","LAUNCH_DATE":"2021-04-07","ARG_OF_PERICENTER":"62.2659","BSTAR":"0.00002879000000","ECCENTRICITY":"0.00013590","OBJECT_NAME":"STARLINK-2482","MEAN_MOTION_DDOT":"0.0000000000000","CENTER_NAME":"EARTH","REV_AT_EPOCH":"3575","NORAD_CAT_ID":"48139","GP_ID":"190040281","APOAPSIS":"548.166","DECAY_DATE":null,"EPOCH":"2021-11-18T14:47:33.675072","COUNTRY_CODE":"US","MEAN_MOTION_DOT":"0.00000147","OBJECT_TYPE":"PAYLOAD","FILE":"3218669","SITE":"AFETR","TIME_SYSTEM":"UTC"},{"COUNTRY_CODE":"US","MEAN_MOTION_DOT":"-0.00000356","OBJECT_TYPE":"PAYLOAD","FILE":"3218461","SITE":"AFETR","TIME_SYSTEM":"UTC","REV_AT_EPOCH":"3544","NORAD_CAT_ID":"48140","GP_ID":"190012192","DECAY_DATE":null,"APOAPSIS":"548.162","EPOCH":"2021-11-18T10:50:00.458880","OBJECT_ID":"2021-027BA","INCLINATION":"53.0568","ELEMENT_SET_NO":"999","RA_OF_ASC_NODE":"29.6627","MEAN_MOTION":"15.06393240","SEMIMAJOR_AXIS":"6925.369","REF_FRAME":"TEME","TLE_LINE1":"1 48140U 21027BA  21322.45139420 -.00000356  00000-0 -49989-5 0  9997","PERIOD":"95.593","EPHEMERIS_TYPE":"0","LAUNCH_DATE":"2021-04-07","ARG_OF_PERICENTER":"68.1035","BSTAR":"-0.00000499890000","ECCENTRICITY":"0.00013400","OBJECT_NAME":"STARLINK-2483","MEAN_MOTION_DDOT":"0.0000000000000","CENTER_NAME":"EARTH","RCS_SIZE":"LARGE","TLE_LINE2":"2 48140  53.0568  29.6627 0001340  68.1035 292.0097 15.06393240 35447","CLASSIFICATION_TYPE":"U","MEAN_ANOMALY":"292.0097","PERIAPSIS":"546.306","MEAN_ELEMENT_THEORY":"SGP4"},{"OBJECT_ID":"2021-027BB","INCLINATION":"53.0562","ELEMENT_SET_NO":"999","RA_OF_ASC_NODE":"28.9799","MEAN_MOTION":"15.06365111","SEMIMAJOR_AXIS":"6925.455","PERIOD":"95.594","TLE_LINE1":"1 48141U 21027BB  21322.60717684 -.00004025  00000-0 -25171-3 0  9991","REF_FRAME":"TEME","EPHEMERIS_TYPE":"0","LAUNCH_DATE":"2021-04-07","ARG_OF_PERICENTER":"68.0139","BSTAR":"-0.00025171000000","ECCENTRICITY":"0.00012720","OBJECT_NAME":"STARLINK-2484","MEAN_MOTION_DDOT":"0.0000000000000","CENTER_NAME":"EARTH","RCS_SIZE":"LARGE","TLE_LINE2":"2 48141  53.0562  28.9799 0001272  68.0139 292.0985 15.06365111 35488","CLASSIFICATION_TYPE":"U","PERIAPSIS":"546.440","MEAN_ANOMALY":"292.0985","MEAN_ELEMENT_THEORY":"SGP4","COUNTRY_CODE":"US","MEAN_MOTION_DOT":"-0.00004025","OBJECT_TYPE":"PAYLOAD","FILE":"3218669","SITE":"AFETR","TIME_SYSTEM":"UTC","REV_AT_EPOCH":"3548","NORAD_CAT_ID":"48141","GP_ID":"190039279","APOAPSIS":"548.201","DECAY_DATE":null,"EPOCH":"2021-11-18T14:34:20.078976"}];
